{"type": "FeatureCollection", "features": [ {"type": "Feature", "properties": {"norad_id": 66912, "name": "1998-067XY", "group": "last-30-days", "lat": -9.330270682616312, "lon": -4.01953087411802, "alt_km": 413.72937646196897, "timestamp": "2025-12-07T11:27:48.742096+00:00", "meta": {"OBJECT_NAME": "1998-067XY", "OBJECT_ID": "1998-067XY", "EPOCH": "2025-12-06T19:10:11.930016", "MEAN_MOTION": 15.50363521, "ECCENTRICITY": 0.00052356, "INCLINATION": 51.6299, "RA_OF_ASC_NODE": 171.8684, "ARG_OF_PERICENTER": 194.0341, "MEAN_ANOMALY": 166.0503, "EPHEMERIS_TYPE": 0, "CLASSIFICATION_TYPE": "U", "NORAD_CAT_ID": 66912, "ELEMENT_SET_NO": 999, "REV_AT_EPOCH": 68, "BSTAR": 0.0011553511, "MEAN_MOTION_DOT": 0.00066928, "MEAN_MOTION_DDOT": 0}, "tle": {"line1": "1 66912U 98067XY  25340.79874919  .00066928  00000+0  11554-2 0  9990", "line2": "2 66912  51.6299 171.8684 0005235 194.0341 166.0503 15.50363521   686"}}, "geometry": {"type": "Point", "coordinates": [-4.01953087411802, -9.330270682616312]}}, {"type": "Feature", "properties": {"norad_id": 66913, "name": "2025-284A", "group": "last-30-days", "lat": 72.45130369225583, "lon": -75.9154718784026, "alt_km": 505.6567737815076, "timestamp": "2025-12-07T11:27:48.742106+00:00", "meta": {"OBJECT_NAME": "2025-284A", "OBJECT_ID": "2025-284A", "EPOCH": "2025-12-05T19:30:25.528608", "MEAN_MOTION": 15.20033669, "ECCENTRICITY": 0.00128266, "INCLINATION": 80.4023, "RA_OF_ASC_NODE": 138.5488, "ARG_OF_PERICENTER": 252.3263, "MEAN_ANOMALY": 107.6565, "EPHEMERIS_TYPE": 0, "CLASSIFICATION_TYPE": "U", "NORAD_CAT_ID": 66913, "ELEMENT_SET_NO": 999, "REV_AT_EPOCH": 7, "BSTAR": 0.00014555981, "MEAN_MOTION_DOT": 3.163e-05, "MEAN_MOTION_DDOT": 0}, "tle": {"line1": "1 66913U 25284A   25339.81279547  .00003163  00000+0  14556-3 0  9997", "line2": "2 66913  80.4023 138.5488 0012826 252.3263 107.6565 15.20033669    75"}}, "geometry": {"type": "Point", "coordinates": [-75.9154718784026, 72.45130369225583]}}, {"type": "Feature", "properties": {"norad_id": 66915, "name": "HULIANWANG DIGUI 14A", "group": "last-30-days", "lat": -7.818696278269143, "lon": -34.664501744942335, "alt_km": 868.3352864158842, "timestamp": "2025-12-07T11:27:48.742117+00:00", "meta": {"OBJECT_NAME": "HULIANWANG DIGUI 14A", "OBJECT_ID": "2025-285A", "EPOCH": "2025-12-06T08:58:45.410016", "MEAN_MOTION": 14.06225102, "ECCENTRICITY": 0.00087698, "INCLINATION": 49.9887, "RA_OF_ASC_NODE": 143.2276, "ARG_OF_PERICENTER": 217.1051, "MEAN_ANOMALY": 142.9249, "EPHEMERIS_TYPE": 0, "CLASSIFICATION_TYPE": "U", "NORAD_CAT_ID": 66915, "ELEMENT_SET_NO": 999, "REV_AT_EPOCH": 1, "BSTAR": 1.8511052e-05, "MEAN_MOTION_DOT": -1.22e-06, "MEAN_MOTION_DDOT": 0}, "tle": {"line1": "1 66915U 25285A   25340.37413669 -.00000122  00000+0  18511-4 0  9997", "line2": "2 66915  49.9887 143.2276 0008769 217.1051 142.9249 14.06225102    11"}}, "geometry": {"type": "Point", "coordinates": [-34.664501744942335, -7.818696278269143]}}, {"type": "Feature", "properties": {"norad_id": 66916, "name": "HULIANWANG DIGUI 14B", "group": "last-30-days", "lat": -6.907355775462295, "lon": -35.39605636283651, "alt_km": 873.3345927586051, "timestamp": "2025-12-07T11:27:48.742127+00:00", "meta": {"OBJECT_NAME": "HULIANWANG DIGUI 14B", "OBJECT_ID": "2025-285B", "EPOCH": "2025-12-06T12:23:28.538592", "MEAN_MOTION": 14.0595389, "ECCENTRICITY": 0.0008093, "INCLINATION": 50.0119, "RA_OF_ASC_NODE": 142.6984, "ARG_OF_PERICENTER": 262.9615, "MEAN_ANOMALY": 97.037, "EPHEMERIS_TYPE": 0, "CLASSIFICATION_TYPE": "U", "NORAD_CAT_ID": 66916, "ELEMENT_SET_NO": 999, "REV_AT_EPOCH": 3, "BSTAR": 1.7671e-05, "MEAN_MOTION_DOT": -1.23e-06, "MEAN_MOTION_DDOT": 0}, "tle": {"line1": "1 66916U 25285B   25340.51630253 -.00000123  00000+0  17671-4 0  9991", "line2": "2 66916  50.0119 142.6984 0008093 262.9615  97.0370 14.05953890    34"}}, "geometry": {"type": "Point", "coordinates": [-35.39605636283651, -6.907355775462295]}}, {"type": "Feature", "properties": {"norad_id": 66917, "name": "HULIANWANG DIGUI 14C", "group": "last-30-days", "lat": -7.23590452591641, "lon": -35.12619222241316, "alt_km": 873.3403620722675, "timestamp": "2025-12-07T11:27:48.742137+00:00", "meta": {"OBJECT_NAME": "HULIANWANG DIGUI 14C", "OBJECT_ID": "2025-285C", "EPOCH": "2025-12-07T08:51:36.252576", "MEAN_MOTION": 14.06037228, "ECCENTRICITY": 0.0007427, "INCLINATION": 50.0027, "RA_OF_ASC_NODE": 139.1984, "ARG_OF_PERICENTER": 267.8822, "MEAN_ANOMALY": 92.1233, "EPHEMERIS_TYPE": 0, "CLASSIFICATION_TYPE": "U", "NORAD_CAT_ID": 66917, "ELEMENT_SET_NO": 999, "REV_AT_EPOCH": 15, "BSTAR": -9.1018e-06, "MEAN_MOTION_DOT": -1.67e-06, "MEAN_MOTION_DDOT": 0}, "tle": {"line1": "1 66917U 25285C   25341.36916959 -.00000167  00000+0 -91018-5 0  9993", "line2": "2 66917  50.0027 139.1984 0007427 267.8822  92.1233 14.06037228   154"}}, "geometry": {"type": "Point", "coordinates": [-35.12619222241316, -7.23590452591641]}}, {"type": "Feature", "properties": {"norad_id": 66918, "name": "HULIANWANG DIGUI 14D", "group": "last-30-days", "lat": -7.58921555597048, "lon": -34.82380223544268, "alt_km": 872.7110168191202, "timestamp": "2025-12-07T11:27:48.742151+00:00", "meta": {"OBJECT_NAME": "HULIANWANG DIGUI 14D", "OBJECT_ID": "2025-285D", "EPOCH": "2025-12-07T08:51:29.623968", "MEAN_MOTION": 14.06162588, "ECCENTRICITY": 0.0006355, "INCLINATION": 50.0039, "RA_OF_ASC_NODE": 139.198, "ARG_OF_PERICENTER": 263.3458, "MEAN_ANOMALY": 96.6725, "EPHEMERIS_TYPE": 0, "CLASSIFICATION_TYPE": "U", "NORAD_CAT_ID": 66918, "ELEMENT_SET_NO": 999, "REV_AT_EPOCH": 15, "BSTAR": 9.0209e-06, "MEAN_MOTION_DOT": -1.37e-06, "MEAN_MOTION_DDOT": 0}, "tle": {"line1": "1 66918U 25285D   25341.36909287 -.00000137  00000+0  90209-5 0  9997", "line2": "2 66918  50.0039 139.1980 0006355 263.3458  96.6725 14.06162588   152"}}, "geometry": {"type": "Point", "coordinates": [-34.82380223544268, -7.58921555597048]}}, {"type": "Feature", "properties": {"norad_id": 66919, "name": "HULIANWANG DIGUI 14E", "group": "last-30-days", "lat": -7.6776991025471935, "lon": -34.74683266498418, "alt_km": 873.3708265123687, "timestamp": "2025-12-07T11:27:48.742161+00:00", "meta": {"OBJECT_NAME": "HULIANWANG DIGUI 14E", "OBJECT_ID": "2025-285E", "EPOCH": "2025-12-07T08:51:27.135648", "MEAN_MOTION": 14.06180797, "ECCENTRICITY": 0.000785, "INCLINATION": 50.0066, "RA_OF_ASC_NODE": 139.1996, "ARG_OF_PERICENTER": 273.879, "MEAN_ANOMALY": 86.1218, "EPHEMERIS_TYPE": 0, "CLASSIFICATION_TYPE": "U", "NORAD_CAT_ID": 66919, "ELEMENT_SET_NO": 999, "REV_AT_EPOCH": 15, "BSTAR": 8.853e-06, "MEAN_MOTION_DOT": -1.38e-06, "MEAN_MOTION_DDOT": 0}, "tle": {"line1": "1 66919U 25285E   25341.36906407 -.00000138  00000+0  88530-5 0  9994", "line2": "2 66919  50.0066 139.1996 0007850 273.8790  86.1218 14.06180797   159"}}, "geometry": {"type": "Point", "coordinates": [-34.74683266498418, -7.6776991025471935]}}, {"type": "Feature", "properties": {"norad_id": 66920, "name": "HULIANWANG DIGUI 14F", "group": "last-30-days", "lat": -8.073007204486185, "lon": -34.40534912888794, "alt_km": 872.9059480329543, "timestamp": "2025-12-07T11:27:48.742172+00:00", "meta": {"OBJECT_NAME": "HULIANWANG DIGUI 14F", "OBJECT_ID": "2025-285F", "EPOCH": "2025-12-07T08:51:19.917792", "MEAN_MOTION": 14.06303219, "ECCENTRICITY": 0.0005759, "INCLINATION": 50.0099, "RA_OF_ASC_NODE": 139.2018, "ARG_OF_PERICENTER": 271.0398, "MEAN_ANOMALY": 88.9848, "EPHEMERIS_TYPE": 0, "CLASSIFICATION_TYPE": "U", "NORAD_CAT_ID": 66920, "ELEMENT_SET_NO": 999, "REV_AT_EPOCH": 15, "BSTAR": 0.00013039, "MEAN_MOTION_DOT": 6.4e-07, "MEAN_MOTION_DDOT": 0}, "tle": {"line1": "1 66920U 25285F   25341.36898053  .00000064  00000+0  13039-3 0  9990", "line2": "2 66920  50.0099 139.2018 0005759 271.0398  88.9848 14.06303219   158"}}, "geometry": {"type": "Point", "coordinates": [-34.40534912888794, -8.073007204486185]}}, {"type": "Feature", "properties": {"norad_id": 66921, "name": "HULIANWANG DIGUI 14G", "group": "last-30-days", "lat": -8.167001445888777, "lon": -34.323635041804984, "alt_km": 873.2165720425974, "timestamp": "2025-12-07T11:27:48.742211+00:00", "meta": {"OBJECT_NAME": "HULIANWANG DIGUI 14G", "OBJECT_ID": "2025-285G", "EPOCH": "2025-12-07T07:08:58.077024", "MEAN_MOTION": 14.06338544, "ECCENTRICITY": 0.0006931, "INCLINATION": 50.0114, "RA_OF_ASC_NODE": 139.4936, "ARG_OF_PERICENTER": 277.2992, "MEAN_ANOMALY": 82.7125, "EPHEMERIS_TYPE": 0, "CLASSIFICATION_TYPE": "U", "NORAD_CAT_ID": 66921, "ELEMENT_SET_NO": 999, "REV_AT_EPOCH": 14, "BSTAR": 7.7596e-06, "MEAN_MOTION_DOT": -1.4e-06, "MEAN_MOTION_DDOT": 0}, "tle": {"line1": "1 66921U 25285G   25341.29789441 -.00000140  00000+0  77596-5 0  9999", "line2": "2 66921  50.0114 139.4936 0006931 277.2992  82.7125 14.06338544   147"}}, "geometry": {"type": "Point", "coordinates": [-34.323635041804984, -8.167001445888777]}}, {"type": "Feature", "properties": {"norad_id": 66922, "name": "HULIANWANG DIGUI 14H", "group": "last-30-days", "lat": -8.498472821600991, "lon": -34.03962488076135, "alt_km": 873.3877000358179, "timestamp": "2025-12-07T11:27:48.742222+00:00", "meta": {"OBJECT_NAME": "HULIANWANG DIGUI 14H", "OBJECT_ID": "2025-285H", "EPOCH": "2025-12-07T08:51:10.953792", "MEAN_MOTION": 14.06452103, "ECCENTRICITY": 0.0006871, "INCLINATION": 50.0078, "RA_OF_ASC_NODE": 139.2001, "ARG_OF_PERICENTER": 283.9824, "MEAN_ANOMALY": 76.0317, "EPHEMERIS_TYPE": 0, "CLASSIFICATION_TYPE": "U", "NORAD_CAT_ID": 66922, "ELEMENT_SET_NO": 999, "REV_AT_EPOCH": 15, "BSTAR": 8.3502e-05, "MEAN_MOTION_DOT": -1.4e-07, "MEAN_MOTION_DDOT": 0}, "tle": {"line1": "1 66922U 25285H   25341.36887678 -.00000014  00000+0  83502-4 0  9992", "line2": "2 66922  50.0078 139.2001 0006871 283.9824  76.0317 14.06452103   157"}}, "geometry": {"type": "Point", "coordinates": [-34.03962488076135, -8.498472821600991]}}]}